{"fetched_at":"2026-06-09T21:47:50Z","count":3764,"tles":[{"name":"SL-16 R/B","line1":"1 19120U 88039B   26159.94724954  .00000075  00000+0  57944-4 0  9992","line2":"2 19120  71.0147 235.5815 0022687 205.3063 154.6953 14.19629274971339","category":"Other"},{"name":"SL-16 R/B","line1":"1 16182U 85097B   26160.16991617 -.00000116  00000+0 -34219-4 0  9994","line2":"2 16182  71.0038 307.9568 0005572 127.6202  49.3224 14.16612236100182","category":"Other"},{"name":"COSMOS 1743","line1":"1 16719U 86034A   26159.97067833  .00044227  00000+0  42820-3 0  9998","line2":"2 16719  82.5284 337.4647 0003533 310.3752  49.7199 15.66203177194500","category":"Other"},{"name":"COSMOS 1953","line1":"1 19210U 88050A   26159.77770825  .00007630  00000+0  26229-3 0  9999","line2":"2 19210  82.5077  66.5128 0011446 152.4135 207.7715 15.29860438 51707","category":"Other"},{"name":"SL-14 R/B","line1":"1 18749U 88001B   26160.14261444  .00000405  00000+0  44005-4 0  9992","line2":"2 18749  82.5126 109.3415 0016641 298.6353  61.3189 14.85603617 55607","category":"Other"},{"name":"COSMOS 1844","line1":"1 17973U 87041A   26160.18717005 -.00000166  00000+0 -61003-4 0  9999","line2":"2 17973  70.8981 201.1822 0033231 247.0838 112.6775 14.14569625 16528","category":"Other"},{"name":"COSMOS 1975","line1":"1 19573U 88093A   26160.10613156  .00006472  00000+0  22680-3 0  9990","line2":"2 19573  82.5202  25.8306 0010566 200.0736 160.0090 15.29222007 33378","category":"Other"},{"name":"DELTA 1 R/B","line1":"1 20323U 89089B   26160.08044660  .00000286  00000+0  79408-4 0  9994","line2":"2 20323  97.0641 352.9359 0068531 192.5691 167.3801 14.50725771908980","category":"Other"},{"name":"SL-14 R/B","line1":"1 18153U 87055B   26159.73707030  .00000445  00000+0  48270-4 0  9990","line2":"2 18153  82.4996 263.1944 0022068  73.9287 286.4356 14.85705333 83454","category":"Other"},{"name":"SL-14 R/B","line1":"1 19574U 88093B   26159.93176918  .00000464  00000+0  50402-4 0  9999","line2":"2 19574  82.5305 316.3958 0022192  95.8907  20.0337 14.85735572 14568","category":"Other"},{"name":"SL-14 R/B","line1":"1 16792U 86046B   26160.00336878  .00000338  00000+0  36156-4 0  9997","line2":"2 16792  82.4817 353.9095 0021622 287.4084  72.4767 14.85665397139962","category":"Other"},{"name":"SL-14 R/B","line1":"1 17567U 87024B   26160.07094700  .00000330  00000+0  34718-4 0  9991","line2":"2 17567  82.5282   6.8801 0017273 322.0964  37.9036 14.86207750101701","category":"Other"},{"name":"SL-16 R/B","line1":"1 19650U 88102B   26160.16483586 -.00000117  00000+0 -34876-4 0  9998","line2":"2 19650  71.0005 319.0195 0016087 236.5759 123.3827 14.16166575939844","category":"Other"},{"name":"SL-14 R/B","line1":"1 16882U 86055B   26160.20897647  .00000356  00000+0  38080-4 0  9993","line2":"2 16882  82.5210  40.6340 0019744  33.3832  86.6128 14.85717559132952","category":"Other"},{"name":"SL-14 R/B","line1":"1 20466U 90010B   26160.07469435  .00000325  00000+0  36393-4 0  9998","line2":"2 20466  82.5016 181.5637 0019806   3.4032 356.7314 14.83641000942033","category":"Other"},{"name":"SL-12 R/B(2)","line1":"1 15772U 85042D   26159.73049024  .00000032  00000+0  35694-4 0  9998","line2":"2 15772  71.1084 255.3826 0035819 340.6444 130.0097 14.22004461127337","category":"Other"},{"name":"COSMOS 1867","line1":"1 18187U 87060A   26160.02935647 -.00000054  00000+0  17294-4 0  9993","line2":"2 18187  65.0116  50.9055 0016342 282.0629  77.8624 14.31514913 33018","category":"Other"},{"name":"SL-8 R/B","line1":"1 19257U 88053B   26160.17201189  .00000207  00000+0  75443-4 0  9997","line2":"2 19257  74.0478 303.8321 0019199 102.1001  75.3328 14.38964536989755","category":"Other"},{"name":"COSMOS 1833","line1":"1 17589U 87027A   26160.17982975  .00000318  00000+0  19530-3 0  9999","line2":"2 17589  70.9160 133.6998 0022593  68.3312 292.0212 14.13043947 23243","category":"Other"},{"name":"AJISAI (EGS)","line1":"1 16908U 86061A   26160.19208434 -.00000084  00000+0  95020-4 0  9993","line2":"2 16908  50.0060 171.9806 0011261 160.2941 300.4951 12.44516741479392","category":"Other"},{"name":"SL-16 R/B","line1":"1 17590U 87027B   26160.16953073  .00000124  00000+0  85050-4 0  9993","line2":"2 17590  71.0032  83.7236 0006133 321.8422  38.2266 14.17172125 28302","category":"Other"},{"name":"COSMOS 1933","line1":"1 18958U 88020A   26160.06503381  .00003092  00000+0  14777-3 0  9992","line2":"2 18958  82.5122 160.4785 0002717 219.9561 140.1473 15.18663194 64097","category":"Other"}]}