OBJECT_NAME,OBJECT_ID,EPOCH,MEAN_MOTION,ECCENTRICITY,INCLINATION,RA_OF_ASC_NODE,ARG_OF_PERICENTER,MEAN_ANOMALY,EPHEMERIS_TYPE,CLASSIFICATION_TYPE,NORAD_CAT_ID,ELEMENT_SET_NO,REV_AT_EPOCH,BSTAR,MEAN_MOTION_DOT,MEAN_MOTION_DDOT
SL-12 R/B(2),1985-042D,2026-06-08T17:31:54.356736,14.22004461,.0035819,71.1084,255.3826,340.6444,130.0097,0,U,15772,999,12733,.35694E-4,.32E-6,0
SL-16 R/B,1985-097B,2026-06-09T04:04:40.757088,14.16612236,.0005572,71.0038,307.9568,127.6202,49.3224,0,U,16182,999,10018,-.34219E-4,-.116E-5,0
COSMOS 1743,1986-034A,2026-06-08T23:17:46.607712,15.66203177,.0003533,82.5284,337.4647,310.3752,49.7199,0,U,16719,999,19450,.4282E-3,.44227E-3,0
SL-14 R/B,1986-046B,2026-06-09T00:04:51.062592,14.85665397,.0021622,82.4817,353.9095,287.4084,72.4767,0,U,16792,999,13996,.36156E-4,.338E-5,0
SL-14 R/B,1986-055B,2026-06-09T05:00:55.567008,14.85717559,.0019744,82.5210,40.6340,33.3832,86.6128,0,U,16882,999,13295,.3808E-4,.356E-5,0
AJISAI (EGS),1986-061A,2026-06-09T04:36:36.086976,12.44516741,.0011261,50.0060,171.9806,160.2941,300.4951,0,U,16908,999,47939,.9502E-4,-.84E-6,0
SL-14 R/B,1987-024B,2026-06-09T01:42:09.820800,14.86207750,.0017273,82.5282,6.8801,322.0964,37.9036,0,U,17567,999,10170,.34718E-4,.33E-5,0
COSMOS 1833,1987-027A,2026-06-09T04:18:57.290400,14.13043947,.0022593,70.9160,133.6998,68.3312,292.0212,0,U,17589,999,2324,.1953E-3,.318E-5,0
SL-16 R/B,1987-027B,2026-06-09T04:04:07.455072,14.17172125,.0006133,71.0032,83.7236,321.8422,38.2266,0,U,17590,999,2830,.8505E-4,.124E-5,0
COSMOS 1844,1987-041A,2026-06-09T04:29:31.492320,14.14569625,.0033231,70.8981,201.1822,247.0838,112.6775,0,U,17973,999,1652,-.61003E-4,-.166E-5,0
SL-14 R/B,1987-055B,2026-06-08T17:41:22.873920,14.85705333,.0022068,82.4996,263.1944,73.9287,286.4356,0,U,18153,999,8345,.4827E-4,.445E-5,0
COSMOS 1867,1987-060A,2026-06-09T00:42:16.399008,14.31514913,.0016342,65.0116,50.9055,282.0629,77.8624,0,U,18187,999,3301,.17294E-4,-.54E-6,0
SL-14 R/B,1988-001B,2026-06-09T03:25:21.887616,14.85603617,.0016641,82.5126,109.3415,298.6353,61.3189,0,U,18749,999,5560,.44005E-4,.405E-5,0
COSMOS 1933,1988-020A,2026-06-09T01:33:38.921184,15.18663194,.0002717,82.5122,160.4785,219.9561,140.1473,0,U,18958,999,6409,.14777E-3,.3092E-4,0
SL-16 R/B,1988-039B,2026-06-08T22:44:02.360256,14.19629274,.0022687,71.0147,235.5815,205.3063,154.6953,0,U,19120,999,97133,.57944E-4,.75E-6,0
COSMOS 1953,1988-050A,2026-06-08T18:39:53.992800,15.29860438,.0011446,82.5077,66.5128,152.4135,207.7715,0,U,19210,999,5170,.26229E-3,.763E-4,0
SL-8 R/B,1988-053B,2026-06-09T04:07:41.827296,14.38964536,.0019199,74.0478,303.8321,102.1001,75.3328,0,U,19257,999,98975,.75443E-4,.207E-5,0
COSMOS 1975,1988-093A,2026-06-09T02:32:49.766784,15.29222007,.0010566,82.5202,25.8306,200.0736,160.0090,0,U,19573,999,3337,.2268E-3,.6472E-4,0
SL-14 R/B,1988-093B,2026-06-08T22:21:44.857152,14.85735572,.0022192,82.5305,316.3958,95.8907,20.0337,0,U,19574,999,1456,.50402E-4,.464E-5,0
SL-16 R/B,1988-102B,2026-06-09T03:57:21.818304,14.16166575,.0016087,71.0005,319.0195,236.5759,123.3827,0,U,19650,999,93984,-.34876E-4,-.117E-5,0
DELTA 1 R/B,1989-089B,2026-06-09T01:55:50.586240,14.50725771,.0068531,97.0641,352.9359,192.5691,167.3801,0,U,20323,999,90898,.79408E-4,.286E-5,0
SL-14 R/B,1990-010B,2026-06-09T01:47:33.591840,14.83641000,.0019806,82.5016,181.5637,3.4032,356.7314,0,U,20466,999,94203,.36393E-4,.325E-5,0
